XRISM                   
1 57800U 23137A   23343.84040024  .00002762  00000+0  21663-3 0  9990
2 57800  31.0019 141.9368 0009985 122.4893 237.6708 14.98859786 14089
